{"type": "FeatureCollection", "features": [ {"type": "Feature", "properties": {"norad_id": 35706, "name": "COSMOS 2251 DEB", "group": "cosmos-2251-debris", "lat": -51.84969991073222, "lon": 17.982793831819436, "alt_km": 1214.3047153487987, "timestamp": "2025-12-26T19:22:39.305994+00:00", "meta": {"OBJECT_NAME": "COSMOS 2251 DEB", "OBJECT_ID": "1993-036AQB", "EPOCH": "2025-12-21T09:35:04.200288", "MEAN_MOTION": 13.65940195, "ECCENTRICITY": 0.03399329, "INCLINATION": 73.889, "RA_OF_ASC_NODE": 48.5024, "ARG_OF_PERICENTER": 96.6435, "MEAN_ANOMALY": 267.3485, "EPHEMERIS_TYPE": 0, "CLASSIFICATION_TYPE": "U", "NORAD_CAT_ID": 35706, "ELEMENT_SET_NO": 999, "REV_AT_EPOCH": 62180, "BSTAR": 0.00062720687, "MEAN_MOTION_DOT": 7.46e-06, "MEAN_MOTION_DDOT": 0}, "tle": {"line1": "1 35706U 93036AQB 25355.39935417  .00000746  00000+0  62721-3 0  9990", "line2": "2 35706  73.8890  48.5024 0339932  96.6435 267.3485 13.65940195621808"}}, "geometry": {"type": "Point", "coordinates": [17.982793831819436, -51.84969991073222]}}, {"type": "Feature", "properties": {"norad_id": 35711, "name": "COSMOS 2251 DEB", "group": "cosmos-2251-debris", "lat": -61.71502580109131, "lon": 161.34531445183296, "alt_km": 627.251888115411, "timestamp": "2025-12-26T19:22:39.306005+00:00", "meta": {"OBJECT_NAME": "COSMOS 2251 DEB", "OBJECT_ID": "1993-036AQG", "EPOCH": "2025-12-26T06:33:16.354080", "MEAN_MOTION": 14.63833962, "ECCENTRICITY": 0.00856089, "INCLINATION": 74.0438, "RA_OF_ASC_NODE": 194.4903, "ARG_OF_PERICENTER": 292.4398, "MEAN_ANOMALY": 66.7719, "EPHEMERIS_TYPE": 0, "CLASSIFICATION_TYPE": "U", "NORAD_CAT_ID": 35711, "ELEMENT_SET_NO": 999, "REV_AT_EPOCH": 87969, "BSTAR": 0.00022438699, "MEAN_MOTION_DOT": 1.201e-05, "MEAN_MOTION_DDOT": 0}, "tle": {"line1": "1 35711U 93036AQG 25360.27310595  .00001201  00000+0  22439-3 0  9992", "line2": "2 35711  74.0438 194.4903 0085608 292.4398  66.7719 14.63833962879699"}}, "geometry": {"type": "Point", "coordinates": [161.34531445183296, -61.71502580109131]}}, {"type": "Feature", "properties": {"norad_id": 35716, "name": "COSMOS 2251 DEB", "group": "cosmos-2251-debris", "lat": -4.774514158907546, "lon": -11.340621694007593, "alt_km": 759.1975281861933, "timestamp": "2025-12-26T19:22:39.306015+00:00", "meta": {"OBJECT_NAME": "COSMOS 2251 DEB", "OBJECT_ID": "1993-036AQM", "EPOCH": "2025-12-23T05:49:55.043616", "MEAN_MOTION": 14.60096888, "ECCENTRICITY": 0.00892359, "INCLINATION": 73.9921, "RA_OF_ASC_NODE": 174.1043, "ARG_OF_PERICENTER": 12.4356, "MEAN_ANOMALY": 164.342, "EPHEMERIS_TYPE": 0, "CLASSIFICATION_TYPE": "U", "NORAD_CAT_ID": 35716, "ELEMENT_SET_NO": 999, "REV_AT_EPOCH": 87780, "BSTAR": 8.3064383e-05, "MEAN_MOTION_DOT": 3.89e-06, "MEAN_MOTION_DDOT": 0}, "tle": {"line1": "1 35716U 93036AQM 25357.24299819  .00000389  00000+0  83064-4 0  9993", "line2": "2 35716  73.9921 174.1043 0089235  12.4356 164.3420 14.60096888877803"}}, "geometry": {"type": "Point", "coordinates": [-11.340621694007593, -4.774514158907546]}}, {"type": "Feature", "properties": {"norad_id": 35717, "name": "COSMOS 2251 DEB", "group": "cosmos-2251-debris", "lat": -54.575826994915815, "lon": 168.23258129016168, "alt_km": 783.696500076433, "timestamp": "2025-12-26T19:22:39.306026+00:00", "meta": {"OBJECT_NAME": "COSMOS 2251 DEB", "OBJECT_ID": "1993-036AQN", "EPOCH": "2025-12-25T21:56:54.451104", "MEAN_MOTION": 14.3857779, "ECCENTRICITY": 0.0077684, "INCLINATION": 74.1589, "RA_OF_ASC_NODE": 193.3922, "ARG_OF_PERICENTER": 48.9247, "MEAN_ANOMALY": 311.8583, "EPHEMERIS_TYPE": 0, "CLASSIFICATION_TYPE": "U", "NORAD_CAT_ID": 35717, "ELEMENT_SET_NO": 999, "REV_AT_EPOCH": 74289, "BSTAR": 0.0010482, "MEAN_MOTION_DOT": 3.298e-05, "MEAN_MOTION_DDOT": 0}, "tle": {"line1": "1 35717U 93036AQN 25359.91451911  .00003298  00000+0  10482-2 0  9997", "line2": "2 35717  74.1589 193.3922 0077684  48.9247 311.8583 14.38577790742894"}}, "geometry": {"type": "Point", "coordinates": [168.23258129016168, -54.575826994915815]}}, {"type": "Feature", "properties": {"norad_id": 35718, "name": "COSMOS 2251 DEB", "group": "cosmos-2251-debris", "lat": 40.99671045210763, "lon": -91.66723224473283, "alt_km": 654.3538982525852, "timestamp": "2025-12-26T19:22:39.306036+00:00", "meta": {"OBJECT_NAME": "COSMOS 2251 DEB", "OBJECT_ID": "1993-036AQP", "EPOCH": "2025-12-25T13:20:05.416800", "MEAN_MOTION": 14.68890562, "ECCENTRICITY": 0.0009535, "INCLINATION": 74.0321, "RA_OF_ASC_NODE": 105.1659, "ARG_OF_PERICENTER": 151.5106, "MEAN_ANOMALY": 208.6587, "EPHEMERIS_TYPE": 0, "CLASSIFICATION_TYPE": "U", "NORAD_CAT_ID": 35718, "ELEMENT_SET_NO": 999, "REV_AT_EPOCH": 66028, "BSTAR": 0.0018343, "MEAN_MOTION_DOT": 0.00010721, "MEAN_MOTION_DDOT": 0}, "tle": {"line1": "1 35718U 93036AQP 25359.55561825  .00010721  00000+0  18343-2 0  9997", "line2": "2 35718  74.0321 105.1659 0009535 151.5106 208.6587 14.68890562660288"}}, "geometry": {"type": "Point", "coordinates": [-91.66723224473283, 40.99671045210763]}}, {"type": "Feature", "properties": {"norad_id": 35721, "name": "COSMOS 2251 DEB", "group": "cosmos-2251-debris", "lat": -37.041898112506175, "lon": -15.607818147708423, "alt_km": 756.6723838076123, "timestamp": "2025-12-26T19:22:39.306047+00:00", "meta": {"OBJECT_NAME": "COSMOS 2251 DEB", "OBJECT_ID": "1993-036AQS", "EPOCH": "2025-12-09T19:36:39.465216", "MEAN_MOTION": 14.34317214, "ECCENTRICITY": 0.01465875, "INCLINATION": 73.9489, "RA_OF_ASC_NODE": 183.1196, "ARG_OF_PERICENTER": 330.1589, "MEAN_ANOMALY": 29.126, "EPHEMERIS_TYPE": 0, "CLASSIFICATION_TYPE": "U", "NORAD_CAT_ID": 35721, "ELEMENT_SET_NO": 999, "REV_AT_EPOCH": 57747, "BSTAR": 0.0018396061, "MEAN_MOTION_DOT": 5.808e-05, "MEAN_MOTION_DDOT": 0}, "tle": {"line1": "1 35721U 93036AQS 25343.81712344  .00005808  00000+0  18396-2 0  9995", "line2": "2 35721  73.9489 183.1196 0146587 330.1589  29.1260 14.34317214577479"}}, "geometry": {"type": "Point", "coordinates": [-15.607818147708423, -37.041898112506175]}}, {"type": "Feature", "properties": {"norad_id": 35724, "name": "COSMOS 2251 DEB", "group": "cosmos-2251-debris", "lat": -68.22499520125294, "lon": -129.88134158958715, "alt_km": 737.9250332334614, "timestamp": "2025-12-26T19:22:39.306057+00:00", "meta": {"OBJECT_NAME": "COSMOS 2251 DEB", "OBJECT_ID": "1993-036AQV", "EPOCH": "2025-12-26T03:15:24.595776", "MEAN_MOTION": 14.58230246, "ECCENTRICITY": 0.00590933, "INCLINATION": 74.0325, "RA_OF_ASC_NODE": 277.1841, "ARG_OF_PERICENTER": 66.8711, "MEAN_ANOMALY": 293.8665, "EPHEMERIS_TYPE": 0, "CLASSIFICATION_TYPE": "U", "NORAD_CAT_ID": 35724, "ELEMENT_SET_NO": 999, "REV_AT_EPOCH": 87724, "BSTAR": 0.00025889274, "MEAN_MOTION_DOT": 1.194e-05, "MEAN_MOTION_DDOT": 0}, "tle": {"line1": "1 35724U 93036AQV 25360.13570134  .00001194  00000+0  25889-3 0  9991", "line2": "2 35724  74.0325 277.1841 0059093  66.8711 293.8665 14.58230246877241"}}, "geometry": {"type": "Point", "coordinates": [-129.88134158958715, -68.22499520125294]}}, {"type": "Feature", "properties": {"norad_id": 35759, "name": "COSMOS 2251 DEB", "group": "cosmos-2251-debris", "lat": 54.71361141066496, "lon": -14.866117922822223, "alt_km": 726.3251740187588, "timestamp": "2025-12-26T19:22:39.306067+00:00", "meta": {"OBJECT_NAME": "COSMOS 2251 DEB", "OBJECT_ID": "1993-036ARD", "EPOCH": "2025-12-23T21:58:59.337120", "MEAN_MOTION": 14.64922516, "ECCENTRICITY": 0.0077376, "INCLINATION": 74.0358, "RA_OF_ASC_NODE": 194.553, "ARG_OF_PERICENTER": 310.1974, "MEAN_ANOMALY": 49.2438, "EPHEMERIS_TYPE": 0, "CLASSIFICATION_TYPE": "U", "NORAD_CAT_ID": 35759, "ELEMENT_SET_NO": 999, "REV_AT_EPOCH": 66299, "BSTAR": 0.00022748, "MEAN_MOTION_DOT": 1.237e-05, "MEAN_MOTION_DDOT": 0}, "tle": {"line1": "1 35759U 93036ARD 25357.91596455  .00001237  00000+0  22748-3 0  9994", "line2": "2 35759  74.0358 194.5530 0077376 310.1974  49.2438 14.64922516662992"}}, "geometry": {"type": "Point", "coordinates": [-14.866117922822223, 54.71361141066496]}}, {"type": "Feature", "properties": {"norad_id": 35771, "name": "COSMOS 2251 DEB", "group": "cosmos-2251-debris", "lat": 47.039550248141104, "lon": -56.64639737118134, "alt_km": 1005.0256574304749, "timestamp": "2025-12-26T19:22:39.306078+00:00", "meta": {"OBJECT_NAME": "COSMOS 2251 DEB", "OBJECT_ID": "1993-036ARR", "EPOCH": "2025-12-15T14:45:16.238592", "MEAN_MOTION": 14.13430046, "ECCENTRICITY": 0.02280549, "INCLINATION": 74.1561, "RA_OF_ASC_NODE": 305.27, "ARG_OF_PERICENTER": 242.9998, "MEAN_ANOMALY": 114.7698, "EPHEMERIS_TYPE": 0, "CLASSIFICATION_TYPE": "U", "NORAD_CAT_ID": 35771, "ELEMENT_SET_NO": 999, "REV_AT_EPOCH": 82901, "BSTAR": 0.0026764238, "MEAN_MOTION_DOT": 6.427e-05, "MEAN_MOTION_DDOT": 0}, "tle": {"line1": "1 35771U 93036ARR 25349.61477128  .00006427  00000+0  26764-2 0  9998", "line2": "2 35771  74.1561 305.2700 0228054 242.9998 114.7698 14.13430046829012"}}, "geometry": {"type": "Point", "coordinates": [-56.64639737118134, 47.039550248141104]}}, {"type": "Feature", "properties": {"norad_id": 35773, "name": "COSMOS 2251 DEB", "group": "cosmos-2251-debris", "lat": -42.548134982155695, "lon": 149.09949595323047, "alt_km": 705.8455625379411, "timestamp": "2025-12-26T19:22:39.306088+00:00", "meta": {"OBJECT_NAME": "COSMOS 2251 DEB", "OBJECT_ID": "1993-036ART", "EPOCH": "2025-12-25T22:39:09.707904", "MEAN_MOTION": 14.62141697, "ECCENTRICITY": 0.0045156, "INCLINATION": 74.0084, "RA_OF_ASC_NODE": 315.4935, "ARG_OF_PERICENTER": 111.5767, "MEAN_ANOMALY": 249.022, "EPHEMERIS_TYPE": 0, "CLASSIFICATION_TYPE": "U", "NORAD_CAT_ID": 35773, "ELEMENT_SET_NO": 999, "REV_AT_EPOCH": 87032, "BSTAR": 0.00062756, "MEAN_MOTION_DOT": 3.173e-05, "MEAN_MOTION_DDOT": 0}, "tle": {"line1": "1 35773U 93036ART 25359.94386236  .00003173  00000+0  62756-3 0  9993", "line2": "2 35773  74.0084 315.4935 0045156 111.5767 249.0220 14.62141697870329"}}, "geometry": {"type": "Point", "coordinates": [149.09949595323047, -42.548134982155695]}}]}